{"type": "FeatureCollection", "features": [ {"type": "Feature", "properties": {"norad_id": 30996, "name": "FENGYUN 1C DEB", "group": "fengyun-1c-debris", "lat": -81.01459712071112, "lon": -1.04984833188827, "alt_km": 746.1388589813132, "timestamp": "2025-12-24T09:46:31.283967+00:00", "meta": {"OBJECT_NAME": "FENGYUN 1C DEB", "OBJECT_ID": "1999-025BCN", "EPOCH": "2025-12-23T04:49:10.994880", "MEAN_MOTION": 14.35461354, "ECCENTRICITY": 0.00495675, "INCLINATION": 98.9439, "RA_OF_ASC_NODE": 262.5406, "ARG_OF_PERICENTER": 260.8084, "MEAN_ANOMALY": 257.09, "EPHEMERIS_TYPE": 0, "CLASSIFICATION_TYPE": "U", "NORAD_CAT_ID": 30996, "ELEMENT_SET_NO": 999, "REV_AT_EPOCH": 97713, "BSTAR": 0.00085759981, "MEAN_MOTION_DOT": 2.452e-05, "MEAN_MOTION_DDOT": 0}, "tle": {"line1": "1 30996U 99025BCN 25357.20082170  .00002452  00000+0  85760-3 0  9995", "line2": "2 30996  98.9439 262.5406 0049567 260.8084 257.0900 14.35461354977131"}}, "geometry": {"type": "Point", "coordinates": [-1.04984833188827, -81.01459712071112]}}, {"type": "Feature", "properties": {"norad_id": 30998, "name": "FENGYUN 1C DEB", "group": "fengyun-1c-debris", "lat": 81.14307255984072, "lon": -3.4918099205404842, "alt_km": 721.9597073346031, "timestamp": "2025-12-24T09:46:31.283977+00:00", "meta": {"OBJECT_NAME": "FENGYUN 1C DEB", "OBJECT_ID": "1999-025BCQ", "EPOCH": "2025-12-23T22:02:41.659008", "MEAN_MOTION": 14.48081461, "ECCENTRICITY": 0.0012733, "INCLINATION": 98.8289, "RA_OF_ASC_NODE": 81.8946, "ARG_OF_PERICENTER": 165.0652, "MEAN_ANOMALY": 257.9086, "EPHEMERIS_TYPE": 0, "CLASSIFICATION_TYPE": "U", "NORAD_CAT_ID": 30998, "ELEMENT_SET_NO": 999, "REV_AT_EPOCH": 97352, "BSTAR": 0.0023775, "MEAN_MOTION_DOT": 8.815e-05, "MEAN_MOTION_DDOT": 0}, "tle": {"line1": "1 30998U 99025BCQ 25357.91853772  .00008815  00000+0  23775-2 0  9995", "line2": "2 30998  98.8289  81.8946 0012733 165.0652 257.9086 14.48081461973522"}}, "geometry": {"type": "Point", "coordinates": [-3.4918099205404842, 81.14307255984072]}}, {"type": "Feature", "properties": {"norad_id": 30999, "name": "FENGYUN 1C DEB", "group": "fengyun-1c-debris", "lat": -74.56736682808342, "lon": -151.31718618810953, "alt_km": 630.3152645790833, "timestamp": "2025-12-24T09:46:31.283987+00:00", "meta": {"OBJECT_NAME": "FENGYUN 1C DEB", "OBJECT_ID": "1999-025BCR", "EPOCH": "2025-12-23T17:39:29.838528", "MEAN_MOTION": 14.58476583, "ECCENTRICITY": 0.01126334, "INCLINATION": 99.0911, "RA_OF_ASC_NODE": 172.4966, "ARG_OF_PERICENTER": 304.4968, "MEAN_ANOMALY": 54.5632, "EPHEMERIS_TYPE": 0, "CLASSIFICATION_TYPE": "U", "NORAD_CAT_ID": 30999, "ELEMENT_SET_NO": 999, "REV_AT_EPOCH": 98991, "BSTAR": 0.0006136645, "MEAN_MOTION_DOT": 3.048e-05, "MEAN_MOTION_DDOT": 0}, "tle": {"line1": "1 30999U 99025BCR 25357.73576202  .00003048  00000+0  61366-3 0  9998", "line2": "2 30999  99.0911 172.4966 0112633 304.4968  54.5632 14.58476583989918"}}, "geometry": {"type": "Point", "coordinates": [-151.31718618810953, -74.56736682808342]}}, {"type": "Feature", "properties": {"norad_id": 31000, "name": "FENGYUN 1C DEB", "group": "fengyun-1c-debris", "lat": 34.49980796832092, "lon": 19.966652315319312, "alt_km": 739.0016143631783, "timestamp": "2025-12-24T09:46:31.283997+00:00", "meta": {"OBJECT_NAME": "FENGYUN 1C DEB", "OBJECT_ID": "1999-025BCS", "EPOCH": "2025-12-23T13:52:43.911264", "MEAN_MOTION": 14.09665871, "ECCENTRICITY": 0.01648562, "INCLINATION": 97.565, "RA_OF_ASC_NODE": 24.5093, "ARG_OF_PERICENTER": 34.6931, "MEAN_ANOMALY": 115.468, "EPHEMERIS_TYPE": 0, "CLASSIFICATION_TYPE": "U", "NORAD_CAT_ID": 31000, "ELEMENT_SET_NO": 999, "REV_AT_EPOCH": 70109, "BSTAR": 0.00050151864, "MEAN_MOTION_DOT": 9.64e-06, "MEAN_MOTION_DDOT": 0}, "tle": {"line1": "1 31000U 99025BCS 25357.57828601  .00000964  00000+0  50152-3 0  9992", "line2": "2 31000  97.5650  24.5093 0164856  34.6931 115.4680 14.09665871701096"}}, "geometry": {"type": "Point", "coordinates": [19.966652315319312, 34.49980796832092]}}, {"type": "Feature", "properties": {"norad_id": 31001, "name": "FENGYUN 1C DEB", "group": "fengyun-1c-debris", "lat": 61.176036334927645, "lon": 69.5843108616233, "alt_km": 638.0840426371542, "timestamp": "2025-12-24T09:46:31.284007+00:00", "meta": {"OBJECT_NAME": "FENGYUN 1C DEB", "OBJECT_ID": "1999-025BCT", "EPOCH": "2025-12-23T03:16:58.668960", "MEAN_MOTION": 14.42886652, "ECCENTRICITY": 0.014716, "INCLINATION": 99.2722, "RA_OF_ASC_NODE": 230.9335, "ARG_OF_PERICENTER": 122.0416, "MEAN_ANOMALY": 239.5163, "EPHEMERIS_TYPE": 0, "CLASSIFICATION_TYPE": "U", "NORAD_CAT_ID": 31001, "ELEMENT_SET_NO": 999, "REV_AT_EPOCH": 98356, "BSTAR": 0.00031638475, "MEAN_MOTION_DOT": 1.148e-05, "MEAN_MOTION_DDOT": 0}, "tle": {"line1": "1 31001U 99025BCT 25357.13679015  .00001148  00000+0  31638-3 0  9991", "line2": "2 31001  99.2722 230.9335 0147160 122.0416 239.5163 14.42886652983564"}}, "geometry": {"type": "Point", "coordinates": [69.5843108616233, 61.176036334927645]}}, {"type": "Feature", "properties": {"norad_id": 31002, "name": "FENGYUN 1C DEB", "group": "fengyun-1c-debris", "lat": 50.384415220005025, "lon": -159.09015768747994, "alt_km": 963.0639455246137, "timestamp": "2025-12-24T09:46:31.284017+00:00", "meta": {"OBJECT_NAME": "FENGYUN 1C DEB", "OBJECT_ID": "1999-025BCU", "EPOCH": "2025-12-20T21:37:46.056000", "MEAN_MOTION": 13.9920967, "ECCENTRICITY": 0.0098565, "INCLINATION": 98.885, "RA_OF_ASC_NODE": 6.6158, "ARG_OF_PERICENTER": 325.1028, "MEAN_ANOMALY": 152.4938, "EPHEMERIS_TYPE": 0, "CLASSIFICATION_TYPE": "U", "NORAD_CAT_ID": 31002, "ELEMENT_SET_NO": 999, "REV_AT_EPOCH": 95719, "BSTAR": 0.00023571, "MEAN_MOTION_DOT": 3.13e-06, "MEAN_MOTION_DDOT": 0}, "tle": {"line1": "1 31002U 99025BCU 25354.90122750  .00000313  00000+0  23571-3 0  9993", "line2": "2 31002  98.8850   6.6158 0098565 325.1028 152.4938 13.99209670957195"}}, "geometry": {"type": "Point", "coordinates": [-159.09015768747994, 50.384415220005025]}}, {"type": "Feature", "properties": {"norad_id": 31003, "name": "FENGYUN 1C DEB", "group": "fengyun-1c-debris", "lat": 64.56431172741202, "lon": -85.61458070717431, "alt_km": 791.4124581975002, "timestamp": "2025-12-24T09:46:31.284027+00:00", "meta": {"OBJECT_NAME": "FENGYUN 1C DEB", "OBJECT_ID": "1999-025BCV", "EPOCH": "2025-12-24T04:11:02.976000", "MEAN_MOTION": 14.24764002, "ECCENTRICITY": 0.0042041, "INCLINATION": 98.8418, "RA_OF_ASC_NODE": 75.047, "ARG_OF_PERICENTER": 182.3597, "MEAN_ANOMALY": 177.739, "EPHEMERIS_TYPE": 0, "CLASSIFICATION_TYPE": "U", "NORAD_CAT_ID": 31003, "ELEMENT_SET_NO": 999, "REV_AT_EPOCH": 96672, "BSTAR": 0.0014041, "MEAN_MOTION_DOT": 3.258e-05, "MEAN_MOTION_DDOT": 0}, "tle": {"line1": "1 31003U 99025BCV 25358.17434000  .00003258  00000+0  14041-2 0  9993", "line2": "2 31003  98.8418  75.0470 0042041 182.3597 177.7390 14.24764002966720"}}, "geometry": {"type": "Point", "coordinates": [-85.61458070717431, 64.56431172741202]}}, {"type": "Feature", "properties": {"norad_id": 31005, "name": "FENGYUN 1C DEB", "group": "fengyun-1c-debris", "lat": 74.73408436435378, "lon": -15.08606162451353, "alt_km": 1075.0913152833882, "timestamp": "2025-12-24T09:46:31.284037+00:00", "meta": {"OBJECT_NAME": "FENGYUN 1C DEB", "OBJECT_ID": "1999-025BCX", "EPOCH": "2025-12-19T20:39:31.442112", "MEAN_MOTION": 13.83298695, "ECCENTRICITY": 0.01808266, "INCLINATION": 98.6131, "RA_OF_ASC_NODE": 127.0159, "ARG_OF_PERICENTER": 305.9328, "MEAN_ANOMALY": 207.436, "EPHEMERIS_TYPE": 0, "CLASSIFICATION_TYPE": "U", "NORAD_CAT_ID": 31005, "ELEMENT_SET_NO": 999, "REV_AT_EPOCH": 94379, "BSTAR": 0.00095824109, "MEAN_MOTION_DOT": 1.153e-05, "MEAN_MOTION_DDOT": 0}, "tle": {"line1": "1 31005U 99025BCX 25353.86078058  .00001153  00000+0  95824-3 0  9994", "line2": "2 31005  98.6131 127.0159 0180826 305.9328 207.4360 13.83298695943797"}}, "geometry": {"type": "Point", "coordinates": [-15.08606162451353, 74.73408436435378]}}, {"type": "Feature", "properties": {"norad_id": 31007, "name": "FENGYUN 1C DEB", "group": "fengyun-1c-debris", "lat": 80.73573635785486, "lon": -129.4277495740049, "alt_km": 691.0496311113966, "timestamp": "2025-12-24T09:46:31.284047+00:00", "meta": {"OBJECT_NAME": "FENGYUN 1C DEB", "OBJECT_ID": "1999-025BCZ", "EPOCH": "2025-12-23T10:18:07.943040", "MEAN_MOTION": 14.58852316, "ECCENTRICITY": 0.0066637, "INCLINATION": 98.0883, "RA_OF_ASC_NODE": 348.9498, "ARG_OF_PERICENTER": 5.1662, "MEAN_ANOMALY": 355.0211, "EPHEMERIS_TYPE": 0, "CLASSIFICATION_TYPE": "U", "NORAD_CAT_ID": 31007, "ELEMENT_SET_NO": 999, "REV_AT_EPOCH": 98250, "BSTAR": 0.0023416, "MEAN_MOTION_DOT": 0.00011269, "MEAN_MOTION_DDOT": 0}, "tle": {"line1": "1 31007U 99025BCZ 25357.42925860  .00011269  00000+0  23416-2 0  9990", "line2": "2 31007  98.0883 348.9498 0066637   5.1662 355.0211 14.58852316982506"}}, "geometry": {"type": "Point", "coordinates": [-129.4277495740049, 80.73573635785486]}}, {"type": "Feature", "properties": {"norad_id": 31009, "name": "FENGYUN 1C DEB", "group": "fengyun-1c-debris", "lat": 71.87992547410386, "lon": -34.680739231226305, "alt_km": 910.3674386450975, "timestamp": "2025-12-24T09:46:31.284058+00:00", "meta": {"OBJECT_NAME": "FENGYUN 1C DEB", "OBJECT_ID": "1999-025BDB", "EPOCH": "2025-12-23T23:23:56.950080", "MEAN_MOTION": 14.00367369, "ECCENTRICITY": 0.0053197, "INCLINATION": 98.8965, "RA_OF_ASC_NODE": 353.4956, "ARG_OF_PERICENTER": 205.4942, "MEAN_ANOMALY": 210.7791, "EPHEMERIS_TYPE": 0, "CLASSIFICATION_TYPE": "U", "NORAD_CAT_ID": 31009, "ELEMENT_SET_NO": 999, "REV_AT_EPOCH": 96018, "BSTAR": 6.4156e-05, "MEAN_MOTION_DOT": 5.3e-07, "MEAN_MOTION_DDOT": 0}, "tle": {"line1": "1 31009U 99025BDB 25357.97496470  .00000053  00000+0  64156-4 0  9999", "line2": "2 31009  98.8965 353.4956 0053197 205.4942 210.7791 14.00367369960186"}}, "geometry": {"type": "Point", "coordinates": [-34.680739231226305, 71.87992547410386]}}]}